IRIDIUM 921 [-]         
1 24873U 97034E   23333.55749584  .00024869  00000+0  89790-3 0  9992
2 24873  86.3879  26.4453 0002504 307.7340  52.3680 15.28367586444441
IRIDIUM 26 [-]          
1 24903U 97043A   23333.53890668  .00000915  00000+0  30788-3 0  9993
2 24903  86.3957 347.9572 0002262  96.6160 263.5294 14.36099345375533
IRIDIUM 22 [-]          
1 24907U 97043E   23333.51003151  .00000776  00000+0  26575-3 0  9992
2 24907  86.3965 351.0463 0002133  91.3902 268.7539 14.35004231375622
DUMMY MASS 1 [-]        
1 24925U 97048A   23333.60079473  .00000921  00000+0  10236-3 0  9996
2 24925  86.3370  36.6356 0006845  10.2386 349.8976 14.85946473421119
DUMMY MASS 2 [-]        
1 24926U 97048B   23333.60497697  .00000930  00000+0  10402-3 0  9994
2 24926  86.3370  38.1411 0008127  18.2059 341.9455 14.85707518420905
IRIDIUM 29 [-]          
1 24944U 97051A   23333.57645361  .00000924  00000+0  31491-3 0  9991
2 24944  86.3980  20.9759 0001930  87.5782 272.5636 14.35461185372103
IRIDIUM 33 [-]          
1 24946U 97051C   23333.55972967  .00000574  00000+0  19789-3 0  9993
2 24946  86.3895  20.2533 0009814 117.6112 242.6081 14.34188954371654
IRIDIUM 28 [-]          
1 24948U 97051E   23333.57320015  .00000801  00000+0  26712-3 0  9995
2 24948  86.3985  18.8190 0002456 100.0801 260.0673 14.36404490372621
